{
  "type": "FeatureCollection",
  "features": [
    {
      "type": "Feature",
      "properties": {
        "norad_id": 39227,
        "name": "ARIRANG-5 (KOMPSAT-5)",
        "group": "resource",
        "lat": 76.76153201895094,
        "lon": 33.4606366554025,
        "alt_km": 544.6789206688436,
        "timestamp": "2025-12-20T14:38:01.615484+00:00",
        "meta_object_name": "ARIRANG-5 (KOMPSAT-5)",
        "meta_object_id": "2013-042A",
        "meta_epoch": "2025-12-20T06:12:23.838336",
        "meta_mean_motion": 15.04537289,
        "meta_eccentricity": 0.0003424,
        "meta_inclination": 97.6153,
        "meta_ra_of_asc_node": 178.4544,
        "meta_arg_of_pericenter": 37.4126,
        "meta_mean_anomaly": 322.7338,
        "meta_ephemeris_type": 0,
        "meta_classification_type": "U",
        "meta_norad_cat_id": 39227,
        "meta_element_set_no": 999,
        "meta_rev_at_epoch": 67695,
        "meta_bstar": 0.00012839227,
        "meta_mean_motion_dot": 1.738e-05,
        "meta_mean_motion_ddot": 0,
        "tle_line1": "1 39227U 13042A   25354.25860924  .00001738  00000+0  12839-3 0  9992",
        "tle_line2": "2 39227  97.6153 178.4544 0003424  37.4126 322.7338 15.04537289676950"
      },
      "geometry": {
        "type": "Point",
        "coordinates": [
          33.4606366554025,
          76.76153201895094
        ]
      }
    },
    {
      "type": "Feature",
      "properties": {
        "norad_id": 39418,
        "name": "SKYSAT-A",
        "group": "resource",
        "lat": -44.52059063493298,
        "lon": 51.93217386483033,
        "alt_km": 542.1721083388602,
        "timestamp": "2025-12-20T14:38:01.615495+00:00",
        "meta_object_name": "SKYSAT-A",
        "meta_object_id": "2013-066C",
        "meta_epoch": "2025-12-20T02:07:24.987360",
        "meta_mean_motion": 15.11653345,
        "meta_eccentricity": 0.0021262,
        "meta_inclination": 97.4098,
        "meta_ra_of_asc_node": 44.0738,
        "meta_arg_of_pericenter": 209.9149,
        "meta_mean_anomaly": 150.0868,
        "meta_ephemeris_type": 0,
        "meta_classification_type": "U",
        "meta_norad_cat_id": 39418,
        "meta_element_set_no": 999,
        "meta_rev_at_epoch": 66141,
        "meta_bstar": 0.00017332643,
        "meta_mean_motion_dot": 2.899e-05,
        "meta_mean_motion_ddot": 0,
        "tle_line1": "1 39418U 13066C   25354.08848365  .00002899  00000+0  17333-3 0  9999",
        "tle_line2": "2 39418  97.4098  44.0738 0021262 209.9149 150.0868 15.11653345661417"
      },
      "geometry": {
        "type": "Point",
        "coordinates": [
          51.93217386483033,
          -44.52059063493298
        ]
      }
    },
    {
      "type": "Feature",
      "properties": {
        "norad_id": 39419,
        "name": "DUBAISAT-2",
        "group": "resource",
        "lat": 5.3590163677595335,
        "lon": -15.927734491651925,
        "alt_km": 541.4858598164319,
        "timestamp": "2025-12-20T14:38:01.615505+00:00",
        "meta_object_name": "DUBAISAT-2",
        "meta_object_id": "2013-066D",
        "meta_epoch": "2025-12-20T06:38:58.353792",
        "meta_mean_motion": 15.08421014,
        "meta_eccentricity": 0.00099688,
        "meta_inclination": 97.4442,
        "meta_ra_of_asc_node": 344.4526,
        "meta_arg_of_pericenter": 292.428,
        "meta_mean_anomaly": 67.5892,
        "meta_ephemeris_type": 0,
        "meta_classification_type": "U",
        "meta_norad_cat_id": 39419,
        "meta_element_set_no": 999,
        "meta_rev_at_epoch": 65940,
        "meta_bstar": 0.00016958715,
        "meta_mean_motion_dot": 2.58e-05,
        "meta_mean_motion_ddot": 0,
        "tle_line1": "1 39419U 13066D   25354.27706428  .00002580  00000+0  16959-3 0  9994",
        "tle_line2": "2 39419  97.4442 344.4526 0009968 292.4280  67.5892 15.08421014659402"
      },
      "geometry": {
        "type": "Point",
        "coordinates": [
          -15.927734491651925,
          5.3590163677595335
        ]
      }
    },
    {
      "type": "Feature",
      "properties": {
        "norad_id": 39574,
        "name": "GPM-CORE",
        "group": "resource",
        "lat": 59.26652855939747,
        "lon": -45.47405579617429,
        "alt_km": 430.7411402599155,
        "timestamp": "2025-12-20T14:38:01.615516+00:00",
        "meta_object_name": "GPM-CORE",
        "meta_object_id": "2014-009C",
        "meta_epoch": "2025-12-20T03:17:17.010816",
        "meta_mean_motion": 15.44570936,
        "meta_eccentricity": 0.00093991,
        "meta_inclination": 64.9718,
        "meta_ra_of_asc_node": 187.9101,
        "meta_arg_of_pericenter": 248.018,
        "meta_mean_anomaly": 111.9962,
        "meta_ephemeris_type": 0,
        "meta_classification_type": "U",
        "meta_norad_cat_id": 39574,
        "meta_element_set_no": 999,
        "meta_rev_at_epoch": 67015,
        "meta_bstar": 0.00012334534,
        "meta_mean_motion_dot": 5.517e-05,
        "meta_mean_motion_ddot": 0,
        "tle_line1": "1 39574U 14009C   25354.13700244  .00005517  00000+0  12335-3 0  9996",
        "tle_line2": "2 39574  64.9718 187.9101 0009399 248.0180 111.9962 15.44570936670157"
      },
      "geometry": {
        "type": "Point",
        "coordinates": [
          -45.47405579617429,
          59.26652855939747
        ]
      }
    },
    {
      "type": "Feature",
      "properties": {
        "norad_id": 39634,
        "name": "SENTINEL-1A",
        "group": "resource",
        "lat": 40.92091590328684,
        "lon": -7.427225195593138,
        "alt_km": 691.8317306105664,
        "timestamp": "2025-12-20T14:38:01.615526+00:00",
        "meta_object_name": "SENTINEL-1A",
        "meta_object_id": "2014-016A",
        "meta_epoch": "2025-12-20T06:12:57.621600",
        "meta_mean_motion": 14.59202385,
        "meta_eccentricity": 0.00012809,
        "meta_inclination": 98.1795,
        "meta_ra_of_asc_node": 359.3897,
        "meta_arg_of_pericenter": 84.9568,
        "meta_mean_anomaly": 275.1778,
        "meta_ephemeris_type": 0,
        "meta_classification_type": "U",
        "meta_norad_cat_id": 39634,
        "meta_element_set_no": 999,
        "meta_rev_at_epoch": 62392,
        "meta_bstar": 5.0027989e-05,
        "meta_mean_motion_dot": 1.9e-06,
        "meta_mean_motion_ddot": 0,
        "tle_line1": "1 39634U 14016A   25354.25900025  .00000190  00000+0  50028-4 0  9997",
        "tle_line2": "2 39634  98.1795 359.3897 0001280  84.9568 275.1778 14.59202385623929"
      },
      "geometry": {
        "type": "Point",
        "coordinates": [
          -7.427225195593138,
          40.92091590328684
        ]
      }
    },
    {
      "type": "Feature",
      "properties": {
        "norad_id": 39731,
        "name": "KAZEOSAT 1",
        "group": "resource",
        "lat": -69.64718903308835,
        "lon": -136.9620905853144,
        "alt_km": 759.696307411109,
        "timestamp": "2025-12-20T14:38:01.615536+00:00",
        "meta_object_name": "KAZEOSAT 1",
        "meta_object_id": "2014-024A",
        "meta_epoch": "2025-12-20T06:48:39.115584",
        "meta_mean_motion": 14.42066732,
        "meta_eccentricity": 0.00011794,
        "meta_inclination": 98.3432,
        "meta_ra_of_asc_node": 66.0224,
        "meta_arg_of_pericenter": 98.3006,
        "meta_mean_anomaly": 261.8317,
        "meta_ephemeris_type": 0,
        "meta_classification_type": "U",
        "meta_norad_cat_id": 39731,
        "meta_element_set_no": 999,
        "meta_rev_at_epoch": 61277,
        "meta_bstar": 8.0718391e-05,
        "meta_mean_motion_dot": 2.22e-06,
        "meta_mean_motion_ddot": 0,
        "tle_line1": "1 39731U 14024A   25354.28378606  .00000222  00000+0  80718-4 0  9996",
        "tle_line2": "2 39731  98.3432  66.0224 0001179  98.3006 261.8317 14.42066732612774"
      },
      "geometry": {
        "type": "Point",
        "coordinates": [
          -136.9620905853144,
          -69.64718903308835
        ]
      }
    },
    {
      "type": "Feature",
      "properties": {
        "norad_id": 39766,
        "name": "ALOS-2",
        "group": "resource",
        "lat": 65.3149558756097,
        "lon": -73.01826920419153,
        "alt_km": 623.6615436814973,
        "timestamp": "2025-12-20T14:38:01.615547+00:00",
        "meta_object_name": "ALOS-2",
        "meta_object_id": "2014-029A",
        "meta_epoch": "2025-12-20T06:00:25.684128",
        "meta_mean_motion": 14.79471424,
        "meta_eccentricity": 0.00014159,
        "meta_inclination": 97.9231,
        "meta_ra_of_asc_node": 88.9899,
        "meta_arg_of_pericenter": 99.7764,
        "meta_mean_anomaly": 260.3607,
        "meta_ephemeris_type": 0,
        "meta_classification_type": "U",
        "meta_norad_cat_id": 39766,
        "meta_element_set_no": 999,
        "meta_rev_at_epoch": 62512,
        "meta_bstar": 0.00029650605,
        "meta_mean_motion_dot": 2.164e-05,
        "meta_mean_motion_ddot": 0,
        "tle_line1": "1 39766U 14029A   25354.25029727  .00002164  00000+0  29651-3 0  9998",
        "tle_line2": "2 39766  97.9231  88.9899 0001415  99.7764 260.3607 14.79471424625121"
      },
      "geometry": {
        "type": "Point",
        "coordinates": [
          -73.01826920419153,
          65.3149558756097
        ]
      }
    }
  ]
}